STARLINK-31275          
1 59197U 24045V   26068.78785110  .00000059  00000+0  11678-4 0  9995
2 59197  43.0053  92.2241 0001998 270.6780  89.3843 15.27567189113174
BANDWAGON-4 OBJECT M    
1 66304U 25248M   26068.03503276  .00023645  00000+0  95704-3 0  9995
2 66304  45.4108 294.9904 0012944 207.5285 152.4918 15.24295413 18037
